[{"OBJECT_NAME":"STARLINK-2065","OBJECT_ID":"2021-012BE","EPOCH":"2026-03-09T06:02:29.895360","MEAN_MOTION":15.6876286,"ECCENTRICITY":0.0006678,"INCLINATION":53.1532,"RA_OF_ASC_NODE":11.1448,"ARG_OF_PERICENTER":48.9965,"MEAN_ANOMALY":311.1629,"EPHEMERIS_TYPE":0,"CLASSIFICATION_TYPE":"U","NORAD_CAT_ID":47672,"ELEMENT_SET_NO":999,"REV_AT_EPOCH":28079,"BSTAR":0.00096339732,"MEAN_MOTION_DOT":0.00113313,"MEAN_MOTION_DDOT":0},{"OBJECT_NAME":"OBJECT F","OBJECT_ID":"2022-167F","EPOCH":"2026-03-09T22:34:52.000032","MEAN_MOTION":15.68472614,"ECCENTRICITY":0.00018013,"INCLINATION":97.6217,"RA_OF_ASC_NODE":246.6908,"ARG_OF_PERICENTER":28.5626,"MEAN_ANOMALY":331.5733,"EPHEMERIS_TYPE":0,"CLASSIFICATION_TYPE":"U","NORAD_CAT_ID":54687,"ELEMENT_SET_NO":999,"REV_AT_EPOCH":18117,"BSTAR":0.00078904481,"MEAN_MOTION_DOT":0.00089617,"MEAN_MOTION_DDOT":0}]
